[{"OBJECT_NAME":"STARLINK-33827","OBJECT_ID":"2025-091Z","EPOCH":"2026-03-09T23:07:10.948224","MEAN_MOTION":15.27600532,"ECCENTRICITY":5.172e-5,"INCLINATION":42.9987,"RA_OF_ASC_NODE":51.0143,"ARG_OF_PERICENTER":255.0379,"MEAN_ANOMALY":105.0415,"EPHEMERIS_TYPE":0,"CLASSIFICATION_TYPE":"U","NORAD_CAT_ID":63798,"ELEMENT_SET_NO":999,"REV_AT_EPOCH":4894,"BSTAR":0.0011773084,"MEAN_MOTION_DOT":0.00032297,"MEAN_MOTION_DDOT":0},{"OBJECT_NAME":"OBJECT BC","OBJECT_ID":"2025-313BC","EPOCH":"2026-03-09T04:33:08.504064","MEAN_MOTION":15.29126358,"ECCENTRICITY":0.00084789,"INCLINATION":97.3985,"RA_OF_ASC_NODE":144.811,"ARG_OF_PERICENTER":328.9209,"MEAN_ANOMALY":31.1528,"EPHEMERIS_TYPE":0,"CLASSIFICATION_TYPE":"U","NORAD_CAT_ID":67298,"ELEMENT_SET_NO":999,"REV_AT_EPOCH":789,"BSTAR":0.0026410397,"MEAN_MOTION_DOT":0.00075331,"MEAN_MOTION_DDOT":0}]
